[
    {
        "Altitude(m)": 703807.3491908038,
        "Argument of Periapsis(deg)": 0.0034170363559881197,
        "Eccentricity": 0.0,
        "Inclination(deg)": 45.0,
        "Latitude(deg)": -2.523220545497372,
        "Longitude(deg)": -7.698586436823247,
        "Mean Anomaly(deg)": -176.54003500575575,
        "RAAN(deg)": 269.9967744175625,
        "Satellite Name": "Constellation 1 1199",
        "Satellite Number": 1199,
        "Semi-Major Axis(m)": 7083131.272910544,
        "Time(s)": 57
    },
    {
        "Altitude(m)": 703814.1569063481,
        "Argument of Periapsis(deg)": 0.003476984362233526,
        "Eccentricity": 0.0,
        "Inclination(deg)": 45.0,
        "Latitude(deg)": -2.566388769066787,
        "Longitude(deg)": -7.659757775495288,
        "Mean Anomaly(deg)": -176.47933386550582,
        "RAAN(deg)": 269.996717828397,
        "Satellite Name": "Constellation 1 1199",
        "Satellite Number": 1199,
        "Semi-Major Axis(m)": 7083131.272910544,
        "Time(s)": 58
    },
    {
        "Altitude(m)": 703820.9847165076,
        "Argument of Periapsis(deg)": 0.003536932368478932,
        "Eccentricity": 0.0,
        "Inclination(deg)": 45.0,
        "Latitude(deg)": -2.609555439766736,
        "Longitude(deg)": -7.620926477928236,
        "Mean Anomaly(deg)": -176.41863272525597,
        "RAAN(deg)": 269.9966612392314,
        "Satellite Name": "Constellation 1 1199",
        "Satellite Number": 1199,
        "Semi-Major Axis(m)": 7083131.272910544,
        "Time(s)": 59
    },
    {
        "Altitude(m)": 703827.8326092957,
        "Argument of Periapsis(deg)": 0.003596880374724337,
        "Eccentricity": 0.0,
        "Inclination(deg)": 45.0,
        "Latitude(deg)": -2.6527205325168723,
        "Longitude(deg)": -7.582092159459158,
        "Mean Anomaly(deg)": -176.35793158500599,
        "RAAN(deg)": 269.9966046500658,
        "Satellite Name": "Constellation 1 1199",
        "Satellite Number": 1199,
        "Semi-Major Axis(m)": 7083131.272910544,
        "Time(s)": 60
    },
    {
        "Altitude(m)": 703834.700572644,
        "Argument of Periapsis(deg)": 0.0036568283809697427,
        "Eccentricity": 0.0,
        "Inclination(deg)": 45.0,
        "Latitude(deg)": -2.6958840222320957,
        "Longitude(deg)": -7.54325493971078,
        "Mean Anomaly(deg)": -176.29723044475617,
        "RAAN(deg)": 269.9965480609003,
        "Satellite Name": "Constellation 1 1199",
        "Satellite Number": 1199,
        "Semi-Major Axis(m)": 7083131.272910544,
        "Time(s)": 61
    },
    {
        "Altitude(m)": 703841.5885943833,
        "Argument of Periapsis(deg)": 0.003716776387215149,
        "Eccentricity": 0.0,
        "Inclination(deg)": 45.0,
        "Latitude(deg)": -2.7390458838222056,
        "Longitude(deg)": -7.5044147702018424,
        "Mean Anomaly(deg)": -176.23652930450626,
        "RAAN(deg)": 269.99649147173466,
        "Satellite Name": "Constellation 1 1199",
        "Satellite Number": 1199,
        "Semi-Major Axis(m)": 7083131.272910544,
        "Time(s)": 62
    },
    {
        "Altitude(m)": 703848.4966622613,
        "Argument of Periapsis(deg)": 0.003776724393460554,
        "Eccentricity": 0.0,
        "Inclination(deg)": 45.0,
        "Latitude(deg)": -2.782206092191443,
        "Longitude(deg)": -7.465571602445046,
        "Mean Anomaly(deg)": -176.17582816425636,
        "RAAN(deg)": 269.99643488256913,
        "Satellite Name": "Constellation 1 1199",
        "Satellite Number": 1199,
        "Semi-Major Axis(m)": 7083131.272910544,
        "Time(s)": 63
    },
    {
        "Altitude(m)": 703855.4247639234,
        "Argument of Periapsis(deg)": 0.003836672399705959,
        "Eccentricity": 0.0,
        "Inclination(deg)": 45.0,
        "Latitude(deg)": -2.8253646222385043,
        "Longitude(deg)": -7.426725387946686,
        "Mean Anomaly(deg)": -176.11512702400645,
        "RAAN(deg)": 269.99637829340355,
        "Satellite Name": "Constellation 1 1199",
        "Satellite Number": 1199,
        "Semi-Major Axis(m)": 7083131.272910544,
        "Time(s)": 64
    },
    {
        "Altitude(m)": 703862.3728869274,
        "Argument of Periapsis(deg)": 0.003896620405951365,
        "Eccentricity": 0.0,
        "Inclination(deg)": 45.0,
        "Latitude(deg)": -2.868521448856778,
        "Longitude(deg)": -7.387876078206388,
        "Mean Anomaly(deg)": -176.05442588375658,
        "RAAN(deg)": 269.99632170423797,
        "Satellite Name": "Constellation 1 1199",
        "Satellite Number": 1199,
        "Semi-Major Axis(m)": 7083131.272910544,
        "Time(s)": 65
    },
    {
        "Altitude(m)": 703869.3410187376,
        "Argument of Periapsis(deg)": 0.003956568412196771,
        "Eccentricity": 0.0,
        "Inclination(deg)": 45.0,
        "Latitude(deg)": -2.911676546933763,
        "Longitude(deg)": -7.349023624717228,
        "Mean Anomaly(deg)": -175.99372474350668,
        "RAAN(deg)": 269.99626511507245,
        "Satellite Name": "Constellation 1 1199",
        "Satellite Number": 1199,
        "Semi-Major Axis(m)": 7083131.272910544,
        "Time(s)": 66
    },
    {
        "Altitude(m)": 703876.3291467301,
        "Argument of Periapsis(deg)": 0.004016516418442176,
        "Eccentricity": 0.0,
        "Inclination(deg)": 45.0,
        "Latitude(deg)": -2.9548298913517597,
        "Longitude(deg)": -7.310168147062579,
        "Mean Anomaly(deg)": -175.93302360325677,
        "RAAN(deg)": 269.9962085259068,
        "Satellite Name": "Constellation 1 1199",
        "Satellite Number": 1199,
        "Semi-Major Axis(m)": 7083131.272910544,
        "Time(s)": 67
    },
    {
        "Altitude(m)": 703883.3372581844,
        "Argument of Periapsis(deg)": 0.004076464424687581,
        "Eccentricity": 0.0,
        "Inclination(deg)": 45.0,
        "Latitude(deg)": -2.9979814569862238,
        "Longitude(deg)": -7.271309260527562,
        "Mean Anomaly(deg)": -175.87232246300684,
        "RAAN(deg)": 269.9961519367412,
        "Satellite Name": "Constellation 1 1199",
        "Satellite Number": 1199,
        "Semi-Major Axis(m)": 7083131.272910544,
        "Time(s)": 68
    },
    {
        "Altitude(m)": 703890.3653402909,
        "Argument of Periapsis(deg)": 0.004136412430932987,
        "Eccentricity": 0.0,
        "Inclination(deg)": 45.0,
        "Latitude(deg)": -3.0411312187075854,
        "Longitude(deg)": -7.232447084681732,
        "Mean Anomaly(deg)": -175.81162132275696,
        "RAAN(deg)": 269.9960953475757,
        "Satellite Name": "Constellation 1 1199",
        "Satellite Number": 1199,
        "Semi-Major Axis(m)": 7083131.272910544,
        "Time(s)": 69
    },
    {
        "Altitude(m)": 703897.4133801502,
        "Argument of Periapsis(deg)": 0.004196360437178394,
        "Eccentricity": 0.0,
        "Inclination(deg)": 45.0,
        "Latitude(deg)": -3.0842791513800973,
        "Longitude(deg)": -7.19358157099037,
        "Mean Anomaly(deg)": -175.75092018250706,
        "RAAN(deg)": 269.9960387584101,
        "Satellite Name": "Constellation 1 1199",
        "Satellite Number": 1199,
        "Semi-Major Axis(m)": 7083131.272910544,
        "Time(s)": 70
    },
    {
        "Altitude(m)": 703904.4813647615,
        "Argument of Periapsis(deg)": 0.004256308443423799,
        "Eccentricity": 0.0,
        "Inclination(deg)": 45.0,
        "Latitude(deg)": -3.1274252298618967,
        "Longitude(deg)": -7.154712670911523,
        "Mean Anomaly(deg)": -175.69021904225713,
        "RAAN(deg)": 269.9959821692446,
        "Satellite Name": "Constellation 1 1199",
        "Satellite Number": 1199,
        "Semi-Major Axis(m)": 7083131.272910544,
        "Time(s)": 71
    },
    {
        "Altitude(m)": 703911.5692810436,
        "Argument of Periapsis(deg)": 0.004316256449669204,
        "Eccentricity": 0.0,
        "Inclination(deg)": 45.0,
        "Latitude(deg)": -3.170569429004718,
        "Longitude(deg)": -7.115840335896197,
        "Mean Anomaly(deg)": -175.62951790200725,
        "RAAN(deg)": 269.99592558007896,
        "Satellite Name": "Constellation 1 1199",
        "Satellite Number": 1199,
        "Semi-Major Axis(m)": 7083131.272910544,
        "Time(s)": 72
    },
    {
        "Altitude(m)": 703918.6771158127,
        "Argument of Periapsis(deg)": 0.00437620445591461,
        "Eccentricity": 0.0,
        "Inclination(deg)": 45.0,
        "Latitude(deg)": -3.2137117236543267,
        "Longitude(deg)": -7.076964517387671,
        "Mean Anomaly(deg)": -175.56881676175743,
        "RAAN(deg)": 269.9958689909134,
        "Satellite Name": "Constellation 1 1199",
        "Satellite Number": 1199,
        "Semi-Major Axis(m)": 7083131.272910544,
        "Time(s)": 73
    },
    {
        "Altitude(m)": 703925.8048558037,
        "Argument of Periapsis(deg)": 0.004436152462160016,
        "Eccentricity": 0.0,
        "Inclination(deg)": 45.0,
        "Latitude(deg)": -3.256852088650307,
        "Longitude(deg)": -7.038085334918885,
        "Mean Anomaly(deg)": -175.50811562150744,
        "RAAN(deg)": 269.99581240174786,
        "Satellite Name": "Constellation 1 1199",
        "Satellite Number": 1199,
        "Semi-Major Axis(m)": 7083131.272910544,
        "Time(s)": 74
    },
    {
        "Altitude(m)": 703932.9524876532,
        "Argument of Periapsis(deg)": 0.0044961004684054215,
        "Eccentricity": 0.0,
        "Inclination(deg)": 45.0,
        "Latitude(deg)": -3.299990498824811,
        "Longitude(deg)": -6.999202403724181,
        "Mean Anomaly(deg)": -175.4474144812576,
        "RAAN(deg)": 269.9957558125823,
        "Satellite Name": "Constellation 1 1199",
        "Satellite Number": 1199,
        "Semi-Major Axis(m)": 7083131.272910544,
        "Time(s)": 75
    }
]